{
    "links": {
        "self": "http://www.neowsapp.com/rest/v1/neo/3716637?api_key=iIulBulltgU6a56xZRHN4H3l9WmuAYTsLGpBGhQ2"
    },
    "id": "3716637",
    "neo_reference_id": "3716637",
    "name": "(2015 HW9)",
    "designation": "2015 HW9",
    "nasa_jpl_url": "http://ssd.jpl.nasa.gov/sbdb.cgi?sstr=3716637",
    "absolute_magnitude_h": 23.5,
    "estimated_diameter": {
        "kilometers": {
            "estimated_diameter_min": 0.0530340723,
            "estimated_diameter_max": 0.1185877909
        },
        "meters": {
            "estimated_diameter_min": 53.0340723319,
            "estimated_diameter_max": 118.5877908577
        },
        "miles": {
            "estimated_diameter_min": 0.0329538346,
            "estimated_diameter_max": 0.0736870142
        },
        "feet": {
            "estimated_diameter_min": 173.9963058693,
            "estimated_diameter_max": 389.0675677576
        }
    },
    "is_potentially_hazardous_asteroid": false,
    "close_approach_data": [
        {
            "close_approach_date": "2014-12-11",
            "close_approach_date_full": "2014-Dec-11 02:17",
            "epoch_date_close_approach": 1418264220000,
            "relative_velocity": {
                "kilometers_per_second": "13.8100823813",
                "kilometers_per_hour": "49716.2965727142",
                "miles_per_hour": "30891.7732787512"
            },
            "miss_distance": {
                "astronomical": "0.4851639682",
                "lunar": "188.7287836298",
                "kilometers": "72579496.243467734",
                "miles": "45098807.7061893692"
            },
            "orbiting_body": "Earth"
        },
        {
            "close_approach_date": "2015-04-17",
            "close_approach_date_full": "2015-Apr-17 14:59",
            "epoch_date_close_approach": 1429282740000,
            "relative_velocity": {
                "kilometers_per_second": "13.5801092411",
                "kilometers_per_hour": "48888.3932679946",
                "miles_per_hour": "30377.3463614381"
            },
            "miss_distance": {
                "astronomical": "0.1951953472",
                "lunar": "75.9309900608",
                "kilometers": "29200808.175030464",
                "miles": "18144540.8264258432"
            },
            "orbiting_body": "Earth"
        }
    ],
    "orbital_data": {
        "orbit_id": "7",
        "orbit_determination_date": "2018-02-10 07:06:36",
        "first_observation_date": "2015-04-20",
        "last_observation_date": "2015-04-28",
        "data_arc_in_days": 8,
        "observations_used": 38,
        "orbit_uncertainty": "8",
        "minimum_orbit_intersection": ".189819",
        "jupiter_tisserand_invariant": "4.533",
        "epoch_osculation": "2457133.5",
        "eccentricity": ".2510725681888081",
        "semi_major_axis": "1.438753050095019",
        "inclination": "25.80252287278721",
        "ascending_node_longitude": "34.86620651255922",
        "orbital_period": "630.3442751139178",
        "perihelion_distance": "1.077521626818182",
        "perihelion_argument": "115.9544243418172",
        "aphelion_distance": "1.799984473371857",
        "perihelion_time": "2457067.693155100693",
        "mean_anomaly": "37.58337324388185",
        "mean_motion": ".5711164743027763",
        "equinox": "J2000",
        "orbit_class": {
            "orbit_class_type": "AMO",
            "orbit_class_description": "Near-Earth asteroid orbits similar to that of 1221 Amor",
            "orbit_class_range": "1.017 AU < q (perihelion) < 1.3 AU"
        }
    },
    "is_sentry_object": false
}